{
  "norad_id": 54179,
  "name": "STARLINK-5122",
  "history": [
    {
      "epoch": "2026-03-28T19:07:29.972352Z",
      "apogee_km": 540.7394005750257,
      "perigee_km": 538.7271304721899,
      "latitude_deg": 1.7790543451453612e-05,
      "longitude_deg": 165.14985701681158,
      "height_km": 540.6259299953255,
      "semi_major_axis_km": 6917.8702655236075,
      "eccentricity": 0.00014544,
      "inclination_deg": 53.2163,
      "raan_deg": 278.2369,
      "arg_perigee_deg": 89.841,
      "mean_anomaly_deg": 270.2749,
      "mean_motion_rev_day": 15.08843312
    }
  ]
}